ONEWEB-0473             
1 51653U 22012AH  26169.62828635 -.00005271  00000+0 -15160-1 0  9991
2 51653  87.8824  35.9893 0001943  77.8916 282.2429 13.10297196209493
ONEWEB-0474             
1 51654U 22012AJ  26169.92536722 -.00020754  00000+0 -59599-1 0  9995
2 51654  87.8839  35.9152 0001525  51.9541 308.1723 13.10402228209524
ONEWEB-0475             
1 51655U 22012AK  26169.81700704  .00000014  00000+0  17506-5 0  9998
2 51655  87.9132   5.5483 0001447  70.3337 289.7950 13.17648699213907
ONEWEB-0490             
1 54113U 22138A   26169.87837286  .00000049  00000+0  90826-4 0  9994
2 54113  87.9177 304.6299 0001729 102.8548 257.2778 13.19724570177052
ONEWEB-0492             
1 54114U 22138B   26169.90364779 -.00000029  00000+0 -10493-3 0  9992
2 54114  87.9172 304.6262 0001851 107.2120 252.9216 13.19726133177066
ONEWEB-0495             
1 54115U 22138C   26169.88153169  .00000012  00000+0 -21698-5 0  9991
2 54115  87.9171 304.6329 0001316 111.8838 248.2435 13.19724455177047
ONEWEB-0497             
1 54116U 22138D   26169.89416801  .00000009  00000+0 -10830-4 0  9999
2 54116  87.9179 304.6225 0001799 100.0949 260.0387 13.19724666177030
ONEWEB-0499             
1 54117U 22138E   26169.87757941  .00000019  00000+0  14340-4 0  9991
2 54117  87.9172 304.6349 0001611  99.0924 261.0391 13.19726354177047
ONEWEB-0500             
1 54118U 22138F   26169.87995026 -.00000007  00000+0 -51017-4 0  9991
2 54118  87.9178 304.6289 0001968 100.8926 259.2429 13.19724246177055
ONEWEB-0501             
1 54119U 22138G   26169.90996099  .00000024  00000+0  27037-4 0  9999
2 54119  87.9179 304.6225 0001461 106.2916 253.8378 13.19723251177030
ONEWEB-0502             
1 54120U 22138H   26169.89574059 -.00000083  00000+0 -23911-3 0  9990
2 54120  87.9181 304.6139 0001599  94.6507 265.4808 13.19723763177054
ONEWEB-0503             
1 54121U 22138J   26169.73305555  .00000159  00000+0  36415-3 0  9992
2 54121  87.9182 304.6525 0001912  90.8844 269.2508 13.19725626177022
ONEWEB-0504             
1 54122U 22138K   26168.88643879  .00000041  00000+0  70241-4 0  9998
2 54122  87.9179 304.8261 0001633  96.0610 264.0709 13.19725042176923
ONEWEB-0505             
1 54123U 22138L   26169.64144679  .00000203  00000+0  47350-3 0  9992
2 54123  87.9180 304.6768 0001390 100.6066 259.5223 13.19726992177008
ONEWEB-0506             
1 54124U 22138M   26169.91943326 -.00000067  00000+0 -20014-3 0  9997
2 54124  87.9181 304.6184 0001541 102.3508 257.7798 13.19724119177039
ONEWEB-0507             
1 54125U 22138N   26169.78834316  .00000064  00000+0  12642-3 0  9994
2 54125  87.9171 304.6566 0001694 102.5604 257.5719 13.19725231177061
ONEWEB-0508             
1 54126U 22138P   26169.93681053  .00000020  00000+0  17919-4 0  9995
2 54126  87.9170 304.6265 0001574 110.2179 249.9123 13.19724131177069
ONEWEB-0509             
1 54127U 22138Q   26169.91153571 -.00000044  00000+0 -14102-3 0  9991
2 54127  87.9182 304.6213 0001712 100.4561 259.6765 13.19724591177033
ONEWEB-0510             
1 54128U 22138R   26169.72291074  .00000128  00000+0  28347-3 0  9999
2 54128  87.9197 274.1299 0002368  93.5955 266.5449 13.20772955179488
ONEWEB-0511             
1 54129U 22138S   26169.90838272 -.00000096  00000+0 -27162-3 0  9997
2 54129  87.9177 304.6245 0001726  91.1489 268.9842 13.19726337177066
ONEWEB-0512             
1 54130U 22138T   26169.90048022  .00000021  00000+0  21310-4 0  9991
2 54130  87.9170 304.6308 0001514  96.0826 264.0480 13.19725013177037
ONEWEB-0513             
1 54131U 22138U   26169.90539172 -.00000049  00000+0 -15428-3 0  9997
2 54131  87.9179 304.5739 0001046  77.8471 282.2780 13.20268530176949
ONEWEB-0514             
1 54132U 22138V   26169.91627734 -.00000002  00000+0 -37879-4 0  9995
2 54132  87.9182 304.6215 0002002  96.6442 263.4918 13.19725076177052
ONEWEB-0515             
1 54133U 22138W   26169.70944287  .00000038  00000+0  60398-4 0  9997
2 54133  87.9203 274.1271 0002775 109.0525 251.0909 13.20770249179507
ONEWEB-0516             
1 54134U 22138X   26169.73936495 -.00000041  00000+0 -13383-3 0  9990
2 54134  87.9170 304.6629 0001814 103.0272 257.1064 13.19725152177039
ONEWEB-0517             
1 54135U 22138Y   26169.64302046  .00000127  00000+0  28468-3 0  9993
2 54135  87.9179 304.6748 0001931  89.6823 270.4531 13.19725031177024
ONEWEB-0518             
1 54136U 22138Z   26169.88943485  .00000017  00000+0  10309-4 0  9992
2 54136  87.9170 304.6351 0001869 104.8628 255.2712 13.19727552177054
ONEWEB-0519             
1 54137U 22138AA  26169.91470244 -.00000102  00000+0 -28782-3 0  9995
2 54137  87.9184 304.6217 0001897  92.2963 267.8387 13.19726185177063
ONEWEB-0520             
1 54138U 22138AB  26169.64618591  .00000062  00000+0  12365-3 0  9998
2 54138  87.9180 304.6752 0001635 102.9260 257.2056 13.19724962177015
ONEWEB-0521             
1 54139U 22138AC  26169.90679902  .00000073  00000+0  14931-3 0  9994
2 54139  87.9182 304.6119 0001916  91.9670 268.1682 13.19725183176997
