OBJECT_NAME,OBJECT_ID,EPOCH,MEAN_MOTION,ECCENTRICITY,INCLINATION,RA_OF_ASC_NODE,ARG_OF_PERICENTER,MEAN_ANOMALY,EPHEMERIS_TYPE,CLASSIFICATION_TYPE,NORAD_CAT_ID,ELEMENT_SET_NO,REV_AT_EPOCH,BSTAR,MEAN_MOTION_DOT,MEAN_MOTION_DDOT
ONEWEB-0473,2022-012AH,2026-06-18T15:04:43.940640,13.10297196,.00019435,87.8824,35.9893,77.8916,282.2429,0,U,51653,999,20949,-.15160116E-1,-.5271E-4,0
ONEWEB-0474,2022-012AJ,2026-06-18T22:12:31.727808,13.10402228,.00015252,87.8839,35.9152,51.9541,308.1723,0,U,51654,999,20952,-.59599475E-1,-.20754E-3,0
ONEWEB-0475,2022-012AK,2026-06-18T19:36:29.408256,13.17648699,.00014472,87.9132,5.5483,70.3337,289.7950,0,U,51655,999,21390,.1750557E-5,.14E-6,0
ONEWEB-0490,2022-138A,2026-06-18T21:04:51.415104,13.19724570,.00017295,87.9177,304.6299,102.8548,257.2778,0,U,54113,999,17705,.90825862E-4,.49E-6,0
ONEWEB-0492,2022-138B,2026-06-18T21:41:15.169056,13.19726133,.00018511,87.9172,304.6262,107.2120,252.9216,0,U,54114,999,17706,-.10492747E-3,-.29E-6,0
ONEWEB-0495,2022-138C,2026-06-18T21:09:24.338016,13.19724455,.00013161,87.9171,304.6329,111.8838,248.2435,0,U,54115,999,17704,-.2169756E-5,.12E-6,0
ONEWEB-0497,2022-138D,2026-06-18T21:27:36.116064,13.19724666,.00017998,87.9179,304.6225,100.0949,260.0387,0,U,54116,999,17703,-.10830043E-4,.9E-7,0
ONEWEB-0499,2022-138E,2026-06-18T21:03:42.861024,13.19726354,.00016118,87.9172,304.6349,99.0924,261.0391,0,U,54117,999,17704,.1434038E-4,.19E-6,0
ONEWEB-0500,2022-138F,2026-06-18T21:07:07.702464,13.19724246,.00019681,87.9178,304.6289,100.8926,259.2429,0,U,54118,999,17705,-.51017032E-4,-.7E-7,0
ONEWEB-0501,2022-138G,2026-06-18T21:50:20.629536,13.19723251,.00014618,87.9179,304.6225,106.2916,253.8378,0,U,54119,999,17703,.27037349E-4,.24E-6,0
ONEWEB-0502,2022-138H,2026-06-18T21:29:51.986976,13.19723763,.00015998,87.9181,304.6139,94.6507,265.4808,0,U,54120,999,17705,-.23911219E-3,-.83E-6,0
ONEWEB-0503,2022-138J,2026-06-18T17:35:35.999520,13.19725626,.00019122,87.9182,304.6525,90.8844,269.2508,0,U,54121,999,17702,.36415351E-3,.159E-5,0
ONEWEB-0504,2022-138K,2026-06-17T21:16:28.311456,13.19725042,.00016331,87.9179,304.8261,96.0610,264.0709,0,U,54122,999,17692,.70241319E-4,.41E-6,0
ONEWEB-0505,2022-138L,2026-06-18T15:23:41.002656,13.19726992,.00013905,87.9180,304.6768,100.6066,259.5223,0,U,54123,999,17700,.47350004E-3,.203E-5,0
ONEWEB-0506,2022-138M,2026-06-18T22:03:59.033664,13.19724119,.0001541,87.9181,304.6184,102.3508,257.7798,0,U,54124,999,17703,-.20014051E-3,-.67E-6,0
ONEWEB-0507,2022-138N,2026-06-18T18:55:12.849024,13.19725231,.00016945,87.9171,304.6566,102.5604,257.5719,0,U,54125,999,17706,.12641929E-3,.64E-6,0
ONEWEB-0508,2022-138P,2026-06-18T22:29:00.429792,13.19724131,.00015741,87.9170,304.6265,110.2179,249.9123,0,U,54126,999,17706,.17918693E-4,.2E-6,0
ONEWEB-0509,2022-138Q,2026-06-18T21:52:36.685344,13.19724591,.00017126,87.9182,304.6213,100.4561,259.6765,0,U,54127,999,17703,-.14102055E-3,-.44E-6,0
ONEWEB-0510,2022-138R,2026-06-18T17:20:59.487936,13.20772955,.00023689,87.9197,274.1299,93.5955,266.5449,0,U,54128,999,17948,.28347144E-3,.128E-5,0
ONEWEB-0511,2022-138S,2026-06-18T21:48:04.267008,13.19726337,.00017268,87.9177,304.6245,91.1489,268.9842,0,U,54129,999,17706,-.27162144E-3,-.96E-6,0
ONEWEB-0512,2022-138T,2026-06-18T21:36:41.491008,13.19725013,.0001514,87.9170,304.6308,96.0826,264.0480,0,U,54130,999,17703,.21309735E-4,.21E-6,0
ONEWEB-0513,2022-138U,2026-06-18T21:43:45.844608,13.20268530,.0001046,87.9179,304.5739,77.8471,282.2780,0,U,54131,999,17694,-.15428202E-3,-.49E-6,0
ONEWEB-0514,2022-138V,2026-06-18T21:59:26.362176,13.19725076,.0002002,87.9182,304.6215,96.6442,263.4918,0,U,54132,999,17705,-.37878969E-4,-.2E-7,0
ONEWEB-0515,2022-138W,2026-06-18T17:01:35.863968,13.20770249,.0002775,87.9203,274.1271,109.0525,251.0909,0,U,54133,999,17950,.60398043E-4,.38E-6,0
ONEWEB-0516,2022-138X,2026-06-18T17:44:41.131680,13.19725152,.00018147,87.9170,304.6629,103.0272,257.1064,0,U,54134,999,17703,-.13382703E-3,-.41E-6,0
ONEWEB-0517,2022-138Y,2026-06-18T15:25:56.967744,13.19725031,.00019314,87.9179,304.6748,89.6823,270.4531,0,U,54135,999,17702,.28467603E-3,.127E-5,0
ONEWEB-0518,2022-138Z,2026-06-18T21:20:47.171040,13.19727552,.00018695,87.9170,304.6351,104.8628,255.2712,0,U,54136,999,17705,.1030851E-4,.17E-6,0
ONEWEB-0519,2022-138AA,2026-06-18T21:57:10.290816,13.19726185,.00018978,87.9184,304.6217,92.2963,267.8387,0,U,54137,999,17706,-.28782343E-3,-.102E-5,0
ONEWEB-0520,2022-138AB,2026-06-18T15:30:30.462624,13.19724962,.00016351,87.9180,304.6752,102.9260,257.2056,0,U,54138,999,17701,.12364755E-3,.62E-6,0
ONEWEB-0521,2022-138AC,2026-06-18T21:45:47.435328,13.19725183,.0001916,87.9182,304.6119,91.9670,268.1682,0,U,54139,999,17699,.14931092E-3,.73E-6,0
